{
  "type": "FeatureCollection",
  "features": [
    {
      "type": "Feature",
      "properties": {
        "norad_id": 37846,
        "name": "GSAT0101 (GALILEO-PFM)",
        "group": "gnss",
        "lat": 27.791595365775137,
        "lon": 146.9619562025996,
        "alt_km": 23226.91553464691,
        "timestamp": "2025-12-07T20:38:14.308712+00:00",
        "meta_object_name": "GSAT0101 (GALILEO-PFM)",
        "meta_object_id": "2011-060A",
        "meta_epoch": "2025-12-06T10:45:46.943136",
        "meta_mean_motion": 1.70475516,
        "meta_eccentricity": 0.00028809,
        "meta_inclination": 57.0541,
        "meta_ra_of_asc_node": 346.9907,
        "meta_arg_of_pericenter": 311.6243,
        "meta_mean_anomaly": 48.3737,
        "meta_ephemeris_type": 0,
        "meta_classification_type": "U",
        "meta_norad_cat_id": 37846,
        "meta_element_set_no": 999,
        "meta_rev_at_epoch": 8783,
        "meta_bstar": 0,
        "meta_mean_motion_dot": -8.1e-07,
        "meta_mean_motion_ddot": 0,
        "tle_line1": "1 37846U 11060A   25340.44845999 -.00000081  00000+0  00000+0 0  9990",
        "tle_line2": "2 37846  57.0541 346.9907 0002880 311.6243  48.3737  1.70475516 87832"
      },
      "geometry": {
        "type": "Point",
        "coordinates": [
          146.9619562025996,
          27.791595365775137
        ]
      }
    },
    {
      "type": "Feature",
      "properties": {
        "norad_id": 37847,
        "name": "GSAT0102 (GALILEO-FM2)",
        "group": "gnss",
        "lat": -9.764648937268054,
        "lon": 173.36009224885078,
        "alt_km": 23229.700586970164,
        "timestamp": "2025-12-07T20:38:14.308724+00:00",
        "meta_object_name": "GSAT0102 (GALILEO-FM2)",
        "meta_object_id": "2011-060B",
        "meta_epoch": "2025-12-06T01:52:21.849024",
        "meta_mean_motion": 1.7047572,
        "meta_eccentricity": 0.00048425,
        "meta_inclination": 57.055,
        "meta_ra_of_asc_node": 347.0012,
        "meta_arg_of_pericenter": 307.2223,
        "meta_mean_anomaly": 230.8964,
        "meta_ephemeris_type": 0,
        "meta_classification_type": "U",
        "meta_norad_cat_id": 37847,
        "meta_element_set_no": 999,
        "meta_rev_at_epoch": 8783,
        "meta_bstar": 0,
        "meta_mean_motion_dot": -7.9e-07,
        "meta_mean_motion_ddot": 0,
        "tle_line1": "1 37847U 11060B   25340.07803066 -.00000079  00000+0  00000+0 0  9996",
        "tle_line2": "2 37847  57.0550 347.0012 0004842 307.2223 230.8964  1.70475720 87838"
      },
      "geometry": {
        "type": "Point",
        "coordinates": [
          173.36009224885078,
          -9.764648937268054
        ]
      }
    },
    {
      "type": "Feature",
      "properties": {
        "norad_id": 37867,
        "name": "COSMOS 2476 (744)",
        "group": "gnss",
        "lat": -64.57092485380934,
        "lon": -24.09254384742603,
        "alt_km": 19084.04147757375,
        "timestamp": "2025-12-07T20:38:14.308736+00:00",
        "meta_object_name": "COSMOS 2476 (744)",
        "meta_object_id": "2011-064A",
        "meta_epoch": "2025-12-02T19:57:36.313920",
        "meta_mean_motion": 2.13101261,
        "meta_eccentricity": 0.00239603,
        "meta_inclination": 65.1573,
        "meta_ra_of_asc_node": 79.5068,
        "meta_arg_of_pericenter": 233.4935,
        "meta_mean_anomaly": 133.1658,
        "meta_ephemeris_type": 0,
        "meta_classification_type": "U",
        "meta_norad_cat_id": 37867,
        "meta_element_set_no": 999,
        "meta_rev_at_epoch": 10958,
        "meta_bstar": 0,
        "meta_mean_motion_dot": -2.2e-07,
        "meta_mean_motion_ddot": 0,
        "tle_line1": "1 37867U 11064A   25336.83167030 -.00000022  00000+0  00000+0 0  9993",
        "tle_line2": "2 37867  65.1573  79.5068 0023960 233.4935 133.1658  2.13101261109581"
      },
      "geometry": {
        "type": "Point",
        "coordinates": [
          -24.09254384742603,
          -64.57092485380934
        ]
      }
    },
    {
      "type": "Feature",
      "properties": {
        "norad_id": 37868,
        "name": "COSMOS 2477 (745)",
        "group": "gnss",
        "lat": 64.70436297013458,
        "lon": 157.44506667847008,
        "alt_km": 19169.388842511355,
        "timestamp": "2025-12-07T20:38:14.308748+00:00",
        "meta_object_name": "COSMOS 2477 (745)",
        "meta_object_id": "2011-064B",
        "meta_epoch": "2025-12-07T06:13:41.447136",
        "meta_mean_motion": 2.13102693,
        "meta_eccentricity": 0.00211549,
        "meta_inclination": 65.1658,
        "meta_ra_of_asc_node": 79.4345,
        "meta_arg_of_pericenter": 234.4805,
        "meta_mean_anomaly": 109.9504,
        "meta_ephemeris_type": 0,
        "meta_classification_type": "U",
        "meta_norad_cat_id": 37868,
        "meta_element_set_no": 999,
        "meta_rev_at_epoch": 10966,
        "meta_bstar": 0,
        "meta_mean_motion_dot": -1.3e-07,
        "meta_mean_motion_ddot": 0,
        "tle_line1": "1 37868U 11064B   25341.25950749 -.00000013  00000+0  00000+0 0  9993",
        "tle_line2": "2 37868  65.1658  79.4345 0021154 234.4805 109.9504  2.13102693109663"
      },
      "geometry": {
        "type": "Point",
        "coordinates": [
          157.44506667847008,
          64.70436297013458
        ]
      }
    },
    {
      "type": "Feature",
      "properties": {
        "norad_id": 37869,
        "name": "COSMOS 2475 (743)",
        "group": "gnss",
        "lat": 36.65721342902399,
        "lon": 99.55847859456935,
        "alt_km": 19185.109412695187,
        "timestamp": "2025-12-07T20:38:14.308760+00:00",
        "meta_object_name": "COSMOS 2475 (743)",
        "meta_object_id": "2011-064C",
        "meta_epoch": "2025-12-07T08:11:48.953184",
        "meta_mean_motion": 2.13101364,
        "meta_eccentricity": 0.00262336,
        "meta_inclination": 65.1729,
        "meta_ra_of_asc_node": 79.4516,
        "meta_arg_of_pericenter": 248.5614,
        "meta_mean_anomaly": 114.7737,
        "meta_ephemeris_type": 0,
        "meta_classification_type": "U",
        "meta_norad_cat_id": 37869,
        "meta_element_set_no": 999,
        "meta_rev_at_epoch": 10968,
        "meta_bstar": 0,
        "meta_mean_motion_dot": -1.3e-07,
        "meta_mean_motion_ddot": 0,
        "tle_line1": "1 37869U 11064C   25341.34153881 -.00000013  00000+0  00000+0 0  9996",
        "tle_line2": "2 37869  65.1729  79.4516 0026233 248.5614 114.7737  2.13101364109688"
      },
      "geometry": {
        "type": "Point",
        "coordinates": [
          99.55847859456935,
          36.65721342902399
        ]
      }
    },
    {
      "type": "Feature",
      "properties": {
        "norad_id": 37948,
        "name": "BEIDOU-2 IGSO-5 (C10)",
        "group": "gnss",
        "lat": -18.216088248993916,
        "lon": 111.08391368682615,
        "alt_km": 35339.168282240964,
        "timestamp": "2025-12-07T20:38:14.308771+00:00",
        "meta_object_name": "BEIDOU-2 IGSO-5 (C10)",
        "meta_object_id": "2011-073A",
        "meta_epoch": "2025-12-06T19:14:09.676896",
        "meta_mean_motion": 1.00291748,
        "meta_eccentricity": 0.01104743,
        "meta_inclination": 48.0318,
        "meta_ra_of_asc_node": 273.9307,
        "meta_arg_of_pericenter": 222.1618,
        "meta_mean_anomaly": 320.8955,
        "meta_ephemeris_type": 0,
        "meta_classification_type": "U",
        "meta_norad_cat_id": 37948,
        "meta_element_set_no": 999,
        "meta_rev_at_epoch": 5120,
        "meta_bstar": 0,
        "meta_mean_motion_dot": -1.84e-06,
        "meta_mean_motion_ddot": 0,
        "tle_line1": "1 37948U 11073A   25340.80150089 -.00000184  00000+0  00000+0 0  9990",
        "tle_line2": "2 37948  48.0318 273.9307 0110474 222.1618 320.8955  1.00291748 51209"
      },
      "geometry": {
        "type": "Point",
        "coordinates": [
          111.08391368682615,
          -18.216088248993916
        ]
      }
    },
    {
      "type": "Feature",
      "properties": {
        "norad_id": 37951,
        "name": "LUCH 5A (SDCM/PRN 140)",
        "group": "gnss",
        "lat": 7.3714295349479535,
        "lon": -166.3577419068607,
        "alt_km": 35772.266961466536,
        "timestamp": "2025-12-07T20:38:14.308789+00:00",
        "meta_object_name": "LUCH 5A (SDCM/PRN 140)",
        "meta_object_id": "2011-074B",
        "meta_epoch": "2025-12-07T02:26:33.603648",
        "meta_mean_motion": 1.00273813,
        "meta_eccentricity": 0.00058544,
        "meta_inclination": 8.2652,
        "meta_ra_of_asc_node": 76.6674,
        "meta_arg_of_pericenter": 177.0025,
        "meta_mean_anomaly": 26.1106,
        "meta_ephemeris_type": 0,
        "meta_classification_type": "U",
        "meta_norad_cat_id": 37951,
        "meta_element_set_no": 999,
        "meta_rev_at_epoch": 5112,
        "meta_bstar": 0,
        "meta_mean_motion_dot": -4.7e-07,
        "meta_mean_motion_ddot": 0,
        "tle_line1": "1 37951U 11074B   25341.10177782 -.00000047  00000+0  00000+0 0  9996",
        "tle_line2": "2 37951   8.2652  76.6674 0005854 177.0025  26.1106  1.00273813 51120"
      },
      "geometry": {
        "type": "Point",
        "coordinates": [
          -166.3577419068607,
          7.3714295349479535
        ]
      }
    }
  ]
}